NORAD_CAT_ID,OBJECT_NAME,OBJECT_TYPE,EPOCH,MEAN_MOTION,ECCENTRICITY,INCLINATION,RA_OF_ASC_NODE,ARG_OF_PERICENTER,MEAN_ANOMALY,BSTAR,MEAN_MOTION_DOT,MEAN_MOTION_DDOT,TLE_LINE0,TLE_LINE1,TLE_LINE2,SEMIMAJOR_AXIS,PERIOD,APOGEE,PERIGEE,DECAYED
55948.0,STARLINK-5900,PAYLOAD,2023-12-30 14:14:20,14.98329664,0.0002974,69.9997,121.9008,265.0603,95.0217,2.4912e-05,2.04e-06,0.0,0 STARLINK-5900,1 55948U 23037AL  23364.59328958  .00000204  00000-0  24912-4 0  9991,2 55948  69.9997 121.9008 0002974 265.0603  95.0217 14.98329664 44629,6950.194,96.107,574.126,569.992,0.0
55948.0,STARLINK-5900,PAYLOAD,2023-12-30 17:26:36,14.98329053,0.0002954,69.9999,121.5645,263.1714,96.9109,6.1694e-05,6.43e-06,0.0,0 STARLINK-5900,1 55948U 23037AL  23364.72680957  .00000643  00000-0  61694-4 0  9991,2 55948  69.9999 121.5645 0002954 263.1714  96.9109 14.98329053 44648,6950.196,96.107,574.114,570.008,0.0
55948.0,STARLINK-5900,PAYLOAD,2023-12-31 11:04:05,14.98329643,0.0003127,70.0,119.7134,268.9479,91.1321,-1.1103e-05,-2.25e-06,0.0,0 STARLINK-5900,1 55948U 23037AL  23365.46116999 -.00000225  00000-0 -11103-4 0  9991,2 55948  70.0000 119.7134 0003127 268.9479  91.1321 14.98329643 45098,6950.194,96.107,574.232,569.886,0.0
55948.0,STARLINK-5900,PAYLOAD,2023-12-31 17:28:37,14.98331198,0.0003105,69.9997,119.0393,268.8872,91.1931,-2.2377e-06,-1.2e-06,0.0,0 STARLINK-5900,1 55948U 23037AL  23365.72820857 -.00000120  00000-0 -22377-5 0  9995,2 55948  69.9997 119.0393 0003105 268.8872  91.1931 14.98331198 44793,6950.189,96.107,574.212,569.896,0.0
55948.0,STARLINK-5900,PAYLOAD,2024-01-01 11:06:05,14.9832874,0.0002961,69.9999,117.1884,264.2203,95.8619,4.2778e-06,-4.2e-07,0.0,0 STARLINK-5900,1 55948U 23037AL  24001.46256932 -.00000042  00000-0  42778-5 0  9990,2 55948  69.9999 117.1884 0002961 264.2203  95.8619 14.98328740 45240,6950.197,96.107,574.12,570.004,0.0
55948.0,STARLINK-5900,PAYLOAD,2024-01-01 14:18:22,14.98328841,0.0002909,70.0,116.8516,261.6855,98.3975,1.426e-05,7.7e-07,0.0,0 STARLINK-5900,1 55948U 23037AL  24001.59608889  .00000077  00000-0  14260-4 0  9997,2 55948  70.0000 116.8516 0002909 261.6855  98.3975 14.98328841 44929,6950.196,96.107,574.083,570.04,0.0
55948.0,STARLINK-5900,PAYLOAD,2024-01-01 17:30:38,14.98329744,0.0002877,70.0004,116.5158,263.2546,96.8286,2.2918e-05,1.8e-06,0.0,0 STARLINK-5900,1 55948U 23037AL  24001.72960848  .00000180  00000-0  22918-4 0  9992,2 55948  70.0004 116.5158 0002877 263.2546  96.8286 14.98329744 44944,6950.194,96.107,574.058,570.059,0.0
55948.0,STARLINK-5900,PAYLOAD,2024-01-02 11:08:06,14.98332672,0.0002903,70.0,114.664,264.186,95.8968,3.7793e-05,3.58e-06,0.0,0 STARLINK-5900,1 55948U 23037AL  24002.46396442  .00000358  00000-0  37793-4 0  9991,2 55948  70.0000 114.6640 0002903 264.1860  95.8968 14.98332672 45394,6950.185,96.107,574.067,570.032,0.0
55948.0,STARLINK-5900,PAYLOAD,2024-01-02 14:20:22,14.98332387,0.0002964,69.9999,114.3268,266.3506,93.7314,5.1617e-05,5.23e-06,0.0,0 STARLINK-5900,1 55948U 23037AL  24002.59748419  .00000523  00000-0  51617-4 0  9995,2 55948  69.9999 114.3268 0002964 266.3506  93.7314 14.98332387 45079,6950.186,96.107,574.111,569.99,0.0
55948.0,STARLINK-5900,PAYLOAD,2024-01-02 17:32:38,14.98333465,0.0002914,70.0,113.9904,266.4037,93.6788,6.3305e-05,6.62e-06,0.0,0 STARLINK-5900,1 55948U 23037AL  24002.73100300  .00000662  00000-0  63305-4 0  9993,2 55948  70.0000 113.9904 0002914 266.4037  93.6788 14.98333465 45096,6950.182,96.107,574.072,570.022,0.0
55948.0,STARLINK-5900,PAYLOAD,2024-01-03 11:10:08,14.98332427,0.0002449,70.0007,112.1385,260.1194,99.9688,-0.00017952,-2.234e-05,0.0,0 STARLINK-5900,1 55948U 23037AL  24003.46537100 -.00002234  00000-0 -17952-3 0  9991,2 55948  70.0007 112.1385 0002449 260.1194  99.9688 14.98332427 45540,6950.185,96.107,573.752,570.348,0.0
55948.0,STARLINK-5900,PAYLOAD,2024-01-03 14:22:24,14.98323562,0.0002741,70.0003,111.8018,265.1543,94.9303,-6.3386e-05,-8.49e-06,0.0,0 STARLINK-5900,1 55948U 23037AL  24003.59889360 -.00000849  00000-0 -63386-4 0  9996,2 55948  70.0003 111.8018 0002741 265.1543  94.9303 14.98323562 45227,6950.213,96.107,573.983,570.173,0.0
55948.0,STARLINK-5900,PAYLOAD,2024-01-03 15:58:32,14.98325646,0.0002927,69.9997,111.6326,269.0108,91.0716,-3.4727e-05,-5.07e-06,0.0,0 STARLINK-5900,1 55948U 23037AL  24003.66565118 -.00000507  00000-0 -34727-4 0  9994,2 55948  69.9997 111.6326 0002927 269.0108  91.0716 14.98325646 45234,6950.206,96.107,574.106,570.037,0.0
55948.0,STARLINK-5900,PAYLOAD,2024-01-04 11:12:08,14.98330847,0.000288,70.0002,109.6149,264.0794,96.0037,-1.8129e-05,-3.09e-06,0.0,0 STARLINK-5900,1 55948U 23037AL  24004.46676735 -.00000309  00000-0 -18129-4 0  9999,2 55948  70.0002 109.6149 0002880 264.0794  96.0037 14.98330847 45698,6950.19,96.107,574.057,570.054,0.0
55948.0,STARLINK-5900,PAYLOAD,2024-01-04 14:24:24,14.98331521,0.0002747,70.0004,109.2782,258.7617,101.3233,1.3493e-06,-7.7e-07,0.0,0 STARLINK-5900,1 55948U 23037AL  24004.60028600 -.00000077  00000-0  13493-5 0  9998,2 55948  70.0004 109.2782 0002747 258.7617 101.3233 14.98331521 45378,6950.188,96.107,573.962,570.144,0.0
55948.0,STARLINK-5900,PAYLOAD,2024-01-04 16:00:32,14.98333965,0.0002932,70.0002,109.1106,259.0586,101.0244,2.2181e-05,1.72e-06,0.0,0 STARLINK-5900,1 55948U 23037AL  24004.66704353  .00000172  00000-0  22181-4 0  9998,2 55948  70.0002 109.1106 0002932 259.0586 101.0244 14.98333965 45384,6950.181,96.107,574.083,570.008,0.0
55948.0,STARLINK-5900,PAYLOAD,2024-01-05 11:14:09,14.98321527,0.0002843,70.0002,107.0893,263.865,96.2185,8.1348e-05,8.78e-06,0.0,0 STARLINK-5900,1 55948U 23037AL  24005.46816983  .00000878  00000-0  81348-4 0  9993,2 55948  70.0002 107.0893 0002843 263.8650  96.2185 14.98321527 45841,6950.219,96.108,574.06,570.108,0.0
55948.0,STARLINK-5900,PAYLOAD,2024-01-05 14:26:26,14.9832324,0.0002761,70.0006,106.7526,261.872,98.2126,4.1907e-05,4.07e-06,0.0,0 STARLINK-5900,1 55948U 23037AL  24005.60169034  .00000407  00000-0  41907-4 0  9992,2 55948  70.0006 106.7526 0002761 261.8720  98.2126 14.98323240 45525,6950.214,96.107,573.998,570.16,0.0
55948.0,STARLINK-5900,PAYLOAD,2024-01-05 16:02:34,14.98323758,0.0002774,70.0005,106.5842,263.0208,97.0635,4.3105e-05,4.21e-06,0.0,0 STARLINK-5900,1 55948U 23037AL  24005.66845023  .00000421  00000-0  43105-4 0  9995,2 55948  70.0005 106.5842 0002774 263.0208  97.0635 14.98323758 45539,6950.212,96.107,574.005,570.149,0.0
55948.0,STARLINK-5900,PAYLOAD,2024-01-06 11:16:10,14.98333001,0.0002852,70.0001,104.5644,262.2525,97.831,-7.3562e-06,-1.81e-06,0.0,0 STARLINK-5900,1 55948U 23037AL  24006.46956518 -.00000181  00000-0 -73562-5 0  9992,2 55948  70.0001 104.5644 0002852 262.2525  97.8310 14.98333001 45993,6950.184,96.107,574.031,570.066,0.0
55948.0,STARLINK-5900,PAYLOAD,2024-01-06 12:52:18,14.98331262,0.0002747,70.0002,104.3959,258.0823,102.0028,3.3605e-06,-5.3e-07,0.0,0 STARLINK-5900,1 55948U 23037AL  24006.53632602 -.00000053  00000-0  33605-5 0  9996,2 55948  70.0002 104.3959 0002747 258.0823 102.0028 14.98331262 45664,6950.189,96.107,573.963,570.145,0.0
55948.0,STARLINK-5900,PAYLOAD,2024-01-06 16:04:34,14.98332274,0.0002696,70.0004,104.0596,256.3898,103.6961,1.607e-05,9.9e-07,0.0,0 STARLINK-5900,1 55948U 23037AL  24006.66984478  .00000099  00000-0  16070-4 0  9996,2 55948  70.0004 104.0596 0002696 256.3898 103.6961 14.98332274 45685,6950.186,96.107,573.925,570.177,0.0
55948.0,STARLINK-5900,PAYLOAD,2024-01-07 11:18:11,14.98325922,0.0002752,70.0007,102.0405,260.8552,99.2295,1.9267e-05,1.37e-06,0.0,0 STARLINK-5900,1 55948U 23037AL  24007.47096816  .00000137  00000-0  19267-4 0  9990,2 55948  70.0007 102.0405 0002752 260.8552  99.2295 14.98325922 46149,6950.206,96.107,573.983,570.158,0.0
55948.0,STARLINK-5900,PAYLOAD,2024-01-07 14:30:27,14.98325894,0.0002646,70.0007,101.7039,257.0697,103.0167,1.6818e-05,1.08e-06,0.0,0 STARLINK-5900,1 55948U 23037AL  24007.60448845  .00000108  00000-0  16818-4 0  9995,2 55948  70.0007 101.7039 0002646 257.0697 103.0167 14.98325894 45822,6950.206,96.107,573.91,570.232,0.0
55948.0,STARLINK-5900,PAYLOAD,2024-01-07 16:06:35,14.98326017,0.0002744,70.0007,101.5356,260.8819,99.2029,1.8748e-05,1.31e-06,0.0,0 STARLINK-5900,1 55948U 23037AL  24007.67124855  .00000131  00000-0  18748-4 0  9994,2 55948  70.0007 101.5356 0002744 260.8819  99.2029 14.98326017 45831,6950.205,96.107,573.977,570.163,0.0
55948.0,STARLINK-5900,PAYLOAD,2024-01-08 11:20:12,14.98331792,0.000281,70.0002,99.5152,261.3425,98.7416,1.173e-05,4.7e-07,0.0,0 STARLINK-5900,1 55948U 23037AL  24008.47236408  .00000047  00000-0  11730-4 0  9991,2 55948  70.0002  99.5152 0002810 261.3425  98.7416 14.98331792 46290,6950.187,96.107,574.005,570.099,0.0
55948.0,STARLINK-5900,PAYLOAD,2024-01-08 14:32:28,14.98331693,0.0002797,70.0001,99.1782,260.2828,99.8015,1.203e-05,5.1e-07,0.0,0 STARLINK-5900,1 55948U 23037AL  24008.60588389  .00000051  00000-0  12030-4 0  9993,2 55948  70.0001  99.1782 0002797 260.2828  99.8015 14.98331693 45974,6950.188,96.107,573.997,570.109,0.0
55948.0,STARLINK-5900,PAYLOAD,2024-01-08 16:08:36,14.98331721,0.0002787,70.0002,99.01,260.2019,99.8826,1.4856e-05,8.4e-07,0.0,0 STARLINK-5900,1 55948U 23037AL  24008.67264375  .00000084  00000-0  14856-4 0  9990,2 55948  70.0002  99.0100 0002787 260.2019  99.8826 14.98331721 45982,6950.188,96.107,573.99,570.116,0.0
55948.0,STARLINK-5900,PAYLOAD,2024-01-09 11:22:13,14.98330333,0.0002791,70.0001,96.9894,263.062,97.0221,3.0076e-05,2.66e-06,0.0,0 STARLINK-5900,1 55948U 23037AL  24009.47376351  .00000266  00000-0  30076-4 0  9991,2 55948  70.0001  96.9894 0002791 263.0620  97.0221 14.98330333 46440,6950.192,96.107,573.997,570.117,0.0
55948.0,STARLINK-5900,PAYLOAD,2024-01-09 14:34:29,14.98332164,0.0002751,70.0002,96.6528,263.3002,96.7844,5.1779e-05,5.25e-06,0.0,0 STARLINK-5900,1 55948U 23037AL  24009.60728160  .00000525  00000-0  51779-4 0  9996,2 55948  70.0002  96.6528 0002751 263.3002  96.7844 14.98332164 46121,6950.186,96.107,573.963,570.139,0.0
